NORAD_CAT_ID,OBJECT_NAME,OBJECT_TYPE,EPOCH,MEAN_MOTION,ECCENTRICITY,INCLINATION,RA_OF_ASC_NODE,ARG_OF_PERICENTER,MEAN_ANOMALY,BSTAR,MEAN_MOTION_DOT,MEAN_MOTION_DDOT,TLE_LINE0,TLE_LINE1,TLE_LINE2,SEMIMAJOR_AXIS,PERIOD,APOGEE,PERIGEE,DECAYED
55655.0,STARLINK-5267,PAYLOAD,2023-05-15 15:12:27,15.69922944,0.0003683,69.9997,265.7074,266.8368,93.2407,1.4661e-05,1.55e-05,0.0,0 STARLINK-5267,1 55655U 23021AD  23135.63365694  .00001550  00000-0  14661-4 0  9993,2 55655  69.9997 265.7074 0003683 266.8368  93.2407 15.69922944 14176,6737.254,91.724,361.601,356.638,0.0
55655.0,STARLINK-5267,PAYLOAD,2023-05-15 16:44:13,15.6992452,0.0003523,69.9999,265.5282,266.1256,93.9536,1.5715e-05,1.677e-05,0.0,0 STARLINK-5267,1 55655U 23021AD  23135.69737304  .00001677  00000-0  15715-4 0  9991,2 55655  69.9999 265.5282 0003523 266.1256  93.9536 15.69924520 14496,6737.25,91.724,361.488,356.741,0.0
55655.0,STARLINK-5267,PAYLOAD,2023-05-16 11:05:14,15.69927478,0.0003417,70.0011,263.3776,266.3356,93.7449,7.1807e-06,6.51e-06,0.0,0 STARLINK-5267,1 55655U 23021AD  23136.46197184  .00000651  00000-0  71807-5 0  9999,2 55655  70.0011 263.3776 0003417 266.3356  93.7449 15.69927478 14613,6737.241,91.724,361.409,356.804,0.0
55655.0,STARLINK-5267,PAYLOAD,2023-05-17 11:33:16,15.6992539,0.0003404,70.0014,260.5114,269.3873,90.6933,1.9462e-05,2.128e-05,0.0,0 STARLINK-5267,1 55655U 23021AD  23137.48144165  .00002128  00000-0  19462-4 0  9992,2 55655  70.0014 260.5114 0003404 269.3873  90.6933 15.69925390 14462,6737.247,91.724,361.406,356.819,0.0
55655.0,STARLINK-5267,PAYLOAD,2023-05-17 16:08:31,15.69932138,0.0003243,70.001,259.9741,268.8474,91.235,3.1493e-05,3.577e-05,0.0,0 STARLINK-5267,1 55655U 23021AD  23137.67258859  .00003577  00000-0  31493-4 0  9996,2 55655  70.0010 259.9741 0003243 268.8474  91.2350 15.69932138 14804,6737.228,91.724,361.278,356.908,0.0
55655.0,STARLINK-5267,PAYLOAD,2023-05-18 10:29:33,15.69927507,0.0003535,69.9996,257.8234,270.9375,89.1415,6.1901e-06,5.32e-06,0.0,0 STARLINK-5267,1 55655U 23021AD  23138.43718941  .00000532  00000-0  61901-5 0  9990,2 55655  69.9996 257.8234 0003535 270.9375  89.1415 15.69927507 14921,6737.241,91.724,361.488,356.725,0.0
55655.0,STARLINK-5267,PAYLOAD,2023-05-18 18:08:18,15.69926498,0.0003465,69.9996,256.9275,270.7512,89.3287,4.1627e-06,2.88e-06,0.0,0 STARLINK-5267,1 55655U 23021AD  23138.75577444  .00000288  00000-0  41627-5 0  9997,2 55655  69.9996 256.9275 0003465 270.7512  89.3287 15.69926498 14971,6737.244,91.724,361.444,356.775,0.0
55655.0,STARLINK-5267,PAYLOAD,2023-05-19 10:57:35,15.69930852,0.0003412,69.9984,254.9576,269.4487,90.6318,-4.8333e-06,-7.94e-06,0.0,0 STARLINK-5267,1 55655U 23021AD  23139.45666006 -.00000794  00000-0 -48333-5 0  9993,2 55655  69.9984 254.9576 0003412 269.4487  90.6318 15.69930852 15080,6737.232,91.724,361.396,356.798,0.0
55655.0,STARLINK-5267,PAYLOAD,2023-05-20 00:43:21,15.69925949,0.0003366,69.9987,253.3457,269.7069,90.3741,1.437e-05,1.516e-05,0.0,0 STARLINK-5267,1 55655U 23021AD  23140.03010913  .00001516  00000-0  14370-4 0  9993,2 55655  69.9987 253.3457 0003366 269.7069  90.3741 15.69925949 14864,6737.246,91.724,361.379,356.843,0.0
55655.0,STARLINK-5267,PAYLOAD,2023-05-20 09:53:51,15.69935129,0.0003328,69.9997,252.2719,268.1244,91.9571,2.0366e-05,2.238e-05,0.0,0 STARLINK-5267,1 55655U 23021AD  23140.41240273  .00002238  00000-0  20366-4 0  9993,2 55655  69.9997 252.2719 0003328 268.1244  91.9571 15.69935129 14926,6737.22,91.724,361.327,356.842,0.0
55655.0,STARLINK-5267,PAYLOAD,2023-05-20 17:32:36,15.69940637,0.0003512,70.0002,251.3742,264.7246,95.3549,3.9396e-05,4.53e-05,0.0,0 STARLINK-5267,1 55655U 23021AD  23140.73098378  .00004530  00000-0  39396-4 0  9995,2 55655  70.0002 251.3742 0003512 264.7246  95.3549 15.69940637 15284,6737.204,91.723,361.435,356.703,0.0
55655.0,STARLINK-5267,PAYLOAD,2023-05-21 07:18:24,15.69909781,0.0003298,70.002,249.7641,266.296,93.7859,-1.6426e-05,-2.186e-05,0.0,0 STARLINK-5267,1 55655U 23021AD  23141.30445206 -.00002186  00000-0 -16426-4 0  9991,2 55655  70.0020 249.7641 0003298 266.2960  93.7859 15.69909781 15061,6737.292,91.725,361.379,356.935,0.0
55655.0,STARLINK-5267,PAYLOAD,2023-05-21 11:53:39,15.69914979,0.0003357,70.0,249.2248,267.7415,92.3397,-6.6418e-06,-1.011e-05,0.0,0 STARLINK-5267,1 55655U 23021AD  23141.49560100 -.00001011  00000-0 -66418-5 0  9995,2 55655  70.0000 249.2248 0003357 267.7415  92.3397 15.69914979 15409,6737.277,91.725,361.404,356.881,0.0
55655.0,STARLINK-5267,PAYLOAD,2023-05-21 16:28:54,15.69928384,0.0003694,69.9998,248.6885,269.7628,90.3145,1.9627e-05,2.148e-05,0.0,0 STARLINK-5267,1 55655U 23021AD  23141.68674560  .00002148  00000-0  19627-4 0  9991,2 55655  69.9998 248.6885 0003694 269.7628  90.3145 15.69928384 15431,6737.239,91.724,361.593,356.615,0.0
55655.0,STARLINK-5267,PAYLOAD,2023-05-22 00:07:40,15.69930009,0.0003706,70.0001,247.793,270.3133,89.7638,2.9409e-05,3.326e-05,0.0,0 STARLINK-5267,1 55655U 23021AD  23142.00532870  .00003326  00000-0  29409-4 0  9993,2 55655  70.0001 247.7930 0003706 270.3133  89.7638 15.69930009 15170,6737.234,91.724,361.596,356.602,0.0
55655.0,STARLINK-5267,PAYLOAD,2023-05-22 10:49:56,15.69940077,0.0003567,70.0012,246.5386,268.9662,91.1125,0.00010882,0.00012901,0.0,0 STARLINK-5267,1 55655U 23021AD  23142.45134511  .00012901  00000-0  10882-3 0  9995,2 55655  70.0012 246.5386 0003567 268.9662  91.1125 15.69940077 15555,6737.205,91.723,361.474,356.667,0.0
55655.0,STARLINK-5267,PAYLOAD,2023-05-22 15:25:11,15.6994418,0.0003653,70.0013,246.0011,269.6873,90.3904,9.6817e-05,0.00011455,0.0,0 STARLINK-5267,1 55655U 23021AD  23142.64249324  .00011455  00000-0  96817-4 0  9991,2 55655  70.0013 246.0011 0003653 269.6873  90.3904 15.69944180 15582,6737.194,91.723,361.52,356.598,0.0
55655.0,STARLINK-5267,PAYLOAD,2023-05-23 09:46:13,15.69935031,0.0003052,70.0011,243.8506,267.8068,92.2778,6.871e-05,8.06e-05,0.0,0 STARLINK-5267,1 55655U 23021AD  23143.40709522  .00008060  00000-0  68710-4 0  9996,2 55655  70.0011 243.8506 0003052 267.8068  92.2778 15.69935031 15397,6737.22,91.724,361.141,357.029,0.0
55655.0,STARLINK-5267,PAYLOAD,2023-05-23 15:53:13,15.69937648,0.0003764,70.0,243.1356,283.4379,76.6397,9.9172e-05,0.00011736,0.0,0 STARLINK-5267,1 55655U 23021AD  23143.66196017  .00011736  00000-0  99172-4 0  9993,2 55655  70.0000 243.1356 0003764 283.4379  76.6397 15.69937648 15748,6737.212,91.723,361.613,356.542,0.0
55655.0,STARLINK-5267,PAYLOAD,2023-05-23 23:31:59,15.69914422,0.0003696,70.0007,242.2397,277.1914,82.8861,1.2639e-07,-1.98e-06,0.0,0 STARLINK-5267,1 55655U 23021AD  23143.98054752 -.00000198  00000-0  12639-6 0  9993,2 55655  70.0007 242.2397 0003696 277.1914  82.8861 15.69914422 15480,6737.279,91.725,361.634,356.654,0.0
55655.0,STARLINK-5267,PAYLOAD,2023-05-24 14:49:30,15.69928039,0.0003709,70.0001,240.4479,281.644,78.4339,7.0974e-05,8.331e-05,0.0,0 STARLINK-5267,1 55655U 23021AD  23144.61771581  .00008331  00000-0  70974-4 0  9990,2 55655  70.0001 240.4479 0003709 281.6440  78.4339 15.69928039 15585,6737.24,91.724,361.604,356.606,0.0
55655.0,STARLINK-5267,PAYLOAD,2023-05-25 13:45:47,15.69939351,0.0003437,70.0008,237.7619,278.5461,81.5345,8.0011e-05,9.425e-05,0.0,0 STARLINK-5267,1 55655U 23021AD  23145.57346405  .00009425  00000-0  80011-4 0  9997,2 55655  70.0008 237.7619 0003437 278.5461  81.5345 15.69939351 16046,6737.208,91.723,361.388,356.757,0.0
55655.0,STARLINK-5267,PAYLOAD,2023-05-26 09:38:34,15.69921035,0.0002865,70.0024,235.4366,267.2859,92.8009,-2.4314e-06,-5.05e-06,0.0,0 STARLINK-5267,1 55655U 23021AD  23146.40178584 -.00000505  00000-0 -24314-5 0  9998,2 55655  70.0024 235.4366 0002865 267.2859  92.8009 15.69921035 15869,6737.26,91.724,361.055,357.195,0.0
55655.0,STARLINK-5267,PAYLOAD,2023-05-26 15:45:34,15.69926292,0.000315,70.0006,234.7172,280.7788,79.3053,1.4732e-05,1.559e-05,0.0,0 STARLINK-5267,1 55655U 23021AD  23146.65665283  .00001559  00000-0  14732-4 0  9992,2 55655  70.0006 234.7172 0003150 280.7788  79.3053 15.69926292 16214,6737.245,91.724,361.232,356.988,0.0
55655.0,STARLINK-5267,PAYLOAD,2023-05-27 14:41:51,15.69924971,0.0002837,70.001,232.0301,274.7314,85.3558,8.0492e-06,7.55e-06,0.0,0 STARLINK-5267,1 55655U 23021AD  23147.61240352  .00000755  00000-0  80492-5 0  9999,2 55655  70.0010 232.0301 0002837 274.7314  85.3558 15.69924971 16054,6737.249,91.724,361.025,357.202,0.0
55655.0,STARLINK-5267,PAYLOAD,2023-05-28 05:59:22,15.699268,0.0002901,70.0004,230.2379,270.7742,89.3121,3.2473e-05,3.694e-05,0.0,0 STARLINK-5267,1 55655U 23021AD  23148.24957021  .00003694  00000-0  32473-4 0  9997,2 55655  70.0004 230.2379 0002901 270.7742  89.3121 15.69926800 16463,6737.243,91.724,361.063,357.154,0.0
55655.0,STARLINK-5267,PAYLOAD,2023-05-28 15:09:53,15.69925324,0.0002979,69.9994,229.1618,280.8664,79.2196,1.8566e-05,2.02e-05,0.0,0 STARLINK-5267,1 55655U 23021AD  23148.63187188  .00002020  00000-0  18566-4 0  9998,2 55655  69.9994 229.1618 0002979 280.8664  79.2196 15.69925324 16214,6737.248,91.724,361.12,357.106,0.0
55655.0,STARLINK-5267,PAYLOAD,2023-05-29 07:59:10,15.69913103,0.0003221,70.0002,227.1927,272.2857,87.797,-1.0156e-05,-1.433e-05,0.0,0 STARLINK-5267,1 55655U 23021AD  23149.33276043 -.00001433  00000-0 -10156-4 0  9991,2 55655  70.0002 227.1927 0003221 272.2857  87.7970 15.69913103 16326,6737.283,91.725,361.318,356.978,0.0
55655.0,STARLINK-5267,PAYLOAD,2023-05-29 14:06:10,15.69919693,0.000315,70.0002,226.4771,264.0772,96.0065,3.0006e-06,1.48e-06,0.0,0 STARLINK-5267,1 55655U 23021AD  23149.58762587  .00000148  00000-0  30006-5 0  9998,2 55655  70.0002 226.4771 0003150 264.0772  96.0065 15.69919693 16677,6737.264,91.724,361.251,357.007,0.0
55655.0,STARLINK-5267,PAYLOAD,2023-05-29 15:37:55,15.69920901,0.0003089,70.0004,226.2976,260.0112,100.0735,3.2481e-06,1.78e-06,0.0,0 STARLINK-5267,1 55655U 23021AD  23149.65134121  .00000178  00000-0  32481-5 0  9995,2 55655  70.0004 226.2976 0003089 260.0112 100.0735 15.69920901 16370,6737.26,91.724,361.206,357.044,0.0
